,id,addr:city,addr:housenumber,addr:postcode,addr:street,description,geometry,latitude,longitude,name,opening_hours,tags,website,coordinates,location_id,zone
0,5,,,10025.0,"West 100th Street, Riverside Dr",,POINT (-73.97328385643567 40.79875781090438),40.79875781,-73.97328386,Firemen's Memorial,Mo-Su 24 hours,attraction,https://www.nycgovparks.org/parks/riverside-park/monuments/482,POINT (-73.97328385643567 40.79875781090438),151,Manhattan Valley
1,30,New York,234,10036.0,West 42nd Street,"Wether its the Empire State Building or the bustling Chelsea Market, Manhattan is not short of fun and interesting places to explore and socialise!",POINT (-73.9885078 40.756466),40.756466,-73.9885078,Ripley's Believe It or Not!,Mo-Su 09:00-01:00,attraction,https://ripleysnewyork.com,POINT (-73.9885078 40.756466),100,Garment District
2,31,New York,,10004.0,Statue of Liberty,,POINT (-74.04448967441175 40.68949342729324),40.68949343,-74.04448967,Statue of Liberty,Mo-Su 09:00-17:00,attraction,https://www.nps.gov/stli/index.htm,POINT (-74.04448967441175 40.68949342729324),103,Governor's Island/Ellis Island/Liberty Island
3,36,New York,414,10031.0,W 141st Street,,POINT (-73.94715219954486 40.82160404277699),40.82160404,-73.9471522,Hamilton Grange National Memorial,We-Su 10:00-17:00,attraction,http://www.nps.gov/hagr/index.htm,POINT (-73.94715219954486 40.82160404277699),152,Manhattanville
31,65,New York,615,10027.0,West 129th Street,Immerse yourself in the captivating world of art as you explore marvellous the pieces that this gallery has to offer,POINT (-73.9586445 40.8172422),40.8172422,-73.9586445,Miriam and Ira D. Wallach Art Gallery,We-Fr 12:00-20:00; Sa-Su 12:00-18:00,gallery,https://wallach.columbia.edu/,POINT (-73.9586445 40.8172422),152,Manhattanville
4,40,New York,251,10013.0,Spring Street,"Wether its the Empire State Building or the bustling Chelsea Market, Manhattan is not short of fun and interesting places to explore and socialise!",POINT (-74.0054663 40.7257695),40.7257695,-74.0054663,Color Factory,"Mo, Th, Su 09:30-18:00; Tu 09:30-17:00; We off; Fr, Sa 09:30-20:00",attraction,http://colorfactory.co,POINT (-74.0054663 40.7257695),125,Hudson Sq
156,39,New York,278,10013.0,Spring Street,Take a trip to the past as you travel by visiting this museum as you observing the rich history provided,POINT (-74.0069355 40.7255756),40.7255756,-74.0069355,New York City Fire Museum,10:00-17:00,museum,http://www.nycfiremuseum.org/,POINT (-74.0069355 40.7255756),125,Hudson Sq
157,41,New York,75,10013.0,Varick Street,Take a trip to the past as you travel by visiting this museum as you observing the rich history provided,POINT (-74.0068809 40.7231769),40.7231769,-74.0068809,Jackie Robinson Museum,Th-Su 11:00-18:00; Dec 25 off,museum,https://www.jackierobinsonmuseum.org,POINT (-74.0068809 40.7231769),125,Hudson Sq
5,44,New York,240,10010.0,E 26th Street,,POINT (-73.98003627256129 40.74012964173791),40.74012964,-73.98003627,Holographic Studios,Mo-Fr 14:00-18:00,attraction,http://www.holographer.com/,POINT (-73.98003627256129 40.74012964173791),137,Kips Bay
6,69,New York,89,10017.0,East 42nd Street,"Wether its the Empire State Building or the bustling Chelsea Market, Manhattan is not short of fun and interesting places to explore and socialise!",POINT (-73.9772748 40.7526474),40.7526474,-73.9772748,Grand Central Terminal,Mo-Su 05:30-02:00,attraction,https://www.grandcentralterminal.com/,POINT (-73.9772748 40.7526474),162,Midtown East
10,91,New York,405,10174.0,Lexington Avenue,,POINT (-73.97518270647976 40.75226675026014),40.75226675,-73.97518271,Chrysler Building,Mo-Fr 08:00-18:00,attraction,https://www.tishmanspeyer.com/projects-investments,POINT (-73.97518270647976 40.75226675026014),162,Midtown East
7,71,New York,350,10018.0,5th Avenue,"Wether its the Empire State Building or the bustling Chelsea Market, Manhattan is not short of fun and interesting places to explore and socialise!",POINT (-73.9856589 40.748442),40.748442,-73.9856589,Empire State Building,Mo-Su 08:00-02:00,attraction,https://www.esbnyc.com/explore,POINT (-73.9856589 40.748442),164,Midtown South
8,72,New York,476,10018.0,5th Avenue,"Wether its the Empire State Building or the bustling Chelsea Market, Manhattan is not short of fun and interesting places to explore and socialise!",POINT (-73.9822454 40.7532182),40.7532182,-73.9822454,New York Public Library,"Mo,Th 08:00-20:00; Tu,We 08:00-21:00; Fr 08:00-18:00; Sa 10:00-18:00; Su 10:00-17:00",attraction,https://www.nypl.org/locations/schwarzman,POINT (-73.9822454 40.7532182),164,Midtown South
9,83,New York,,10036.0,Manhattan,,POINT (-73.98551426775042 40.75813286295451),40.75813286,-73.98551427,Times Square,Mo-Su 24 hours,attraction,https://www.timessquarenyc.org/,POINT (-73.98551426775042 40.75813286295451),230,Times Sq/Theatre District
206,84,New York,245,10036.0,W 44th Street,,POINT (-73.98807845935355 40.75850669453854),40.75850669,-73.98807846,Majestic Theatre,"Depends on show time, see website",theatre,http://www.shubert.nyc/theatres/majestic/,POINT (-73.98807845935355 40.75850669453854),230,Times Sq/Theatre District
11,210,New York,130,10010.0,E 23rd Street,,POINT (-73.985212225661 40.73955255451449),40.73955255,-73.98521223,The Friends Experience,We-Fr 10:00-19:00; Sa-Su 10:00-19:00,attraction,https://www.friendstheexperience.com/new-york/?utm_source=google&utm_medium=localcards&utm_campaign=110671_nyc,POINT (-73.985212225661 40.73955255451449),107,Gramercy
187,209,New York,281,10010.0,Park Avenue Street,,POINT (-73.98673065962154 40.73964203796129),40.73964204,-73.98673066,Fotografiska Museum NYC,Su-We 09:00-21:00; Th-Sa 09:00-23:00,museum,https://www.fotografiska.com/nyc/,POINT (-73.98673065962154 40.73964203796129),107,Gramercy
198,81,New York,9,10003.0,Rutherford Place,,POINT (-73.98414126244339 40.73406107942849),40.73406108,-73.98414126,Stuyvesant Square Park,Mo-Su 07:00-23:00,park,http://www.nycgovparks.org/parks/stuyvesant-square,POINT (-73.98414126244339 40.73406107942849),107,Gramercy
12,14,New York,1260,10020.0,6th Ave,,POINT (-73.97988064372488 40.76014662915565),40.76014663,-73.97988064,Radio City Music Hall,"Depends on show time, see website",entertainment ,https://www.msg.com/radio-city-music-hall?cmp=van_radiocity,POINT (-73.97988064372488 40.76014662915565),161,Midtown Center
167,68,New York,11,10019.0,West 53rd Street,Take a trip to the past as you travel by visiting this museum as you observing the rich history provided,POINT (-73.9775451 40.761612),40.761612,-73.9775451,MoMA,"Mo-Sa,Su 10:30-17:30; Fr 10:30-20:00",museum,https://www.moma.org/,POINT (-73.9775451 40.761612),161,Midtown Center
13,204,New York,178,10014.0,7th Avenue Street,,POINT (-74.00156313791592 40.736481864977456),40.73648186,-74.00156314,Village Vanguard,Mo-Su 07:00-00:00,entertainment ,http://www.villagevanguard.com/,POINT (-74.00156313791592 40.736481864977456),249,West Village
14,208,New York,1568,10028.0,2nd Avenue,,POINT (-73.95371706984969 40.774916521484364),40.77491652,-73.95371707,Comic Strip Live,Mo-Su 13:00-01:00,entertainment ,https://comicstriplive.com/,POINT (-73.95371706984969 40.774916521484364),263,Yorkville West
15,1,New York,616,10009.0,East 9th Street,Immerse yourself in the captivating world of art as you explore marvellous the pieces that this gallery has to offer,POINT (-73.9795215 40.7258135),40.7258135,-73.9795215,Theresa Byrnes Gallery,Tu 13:30-17:00; Th 14:00-18:00; Fr 14:00-19:00; Sa 13:00-19:00; Su 14:00-17:00,gallery,http://www.theresabyrnes.com/,POINT (-73.9795215 40.7258135),4,Alphabet City
139,2,New York,155,10009.0,Avenue C,Take a trip to the past as you travel by visiting this museum as you observing the rich history provided,POINT (-73.9778791 40.7257313),40.7257313,-73.9778791,Museum of Reclaimed Urban Space,"Tu,Th-Su 11:00-19:00",museum,https://morusnyc.org/,POINT (-73.9778791 40.7257313),4,Alphabet City
16,17,New York,453,10011.0,West 17th Street,Immerse yourself in the captivating world of art as you explore marvellous the pieces that this gallery has to offer,POINT (-74.0061805 40.7439372),40.7439372,-74.0061805,Ulrik Gallery,We-Sa 12:00-18:00,gallery,https://ulrik.nyc,POINT (-74.0061805 40.7439372),68,East Chelsea
201,16,New York,75,10011.0,9th Avenue,"Wether its the Empire State Building or the bustling Chelsea Market, Manhattan is not short of fun and interesting places to explore and socialise!",POINT (-74.0069958 40.7429236),40.7429236,-74.0069958,Chelsea Market,Mo-Sa 07:00-21:00; Su 08:00-20:00,shopping,http://chelseamarket.com/,POINT (-74.0069958 40.7429236),68,East Chelsea
17,21,New York,188,10009.0,East 2nd Street,Immerse yourself in the captivating world of art as you explore marvellous the pieces that this gallery has to offer,POINT (-73.9841125 40.7224564),40.7224564,-73.9841125,Karma Gallery,Tu-Sa 10:00-18:00,gallery,https://karmakarma.org,POINT (-73.9841125 40.7224564),79,East Village
18,23,New York,64,10009.0,Avenue A,Immerse yourself in the captivating world of art as you explore marvellous the pieces that this gallery has to offer,POINT (-73.9845324 40.7244007),40.7244007,-73.9845324,MARCH,Tu-Sa 11:00-18:00,gallery,https://www.marchgallery.org,POINT (-73.9845324 40.7244007),79,East Village
19,34,New York,33,10012.0,Bleecker Street,Immerse yourself in the captivating world of art as you explore marvellous the pieces that this gallery has to offer,POINT (-73.9937321 40.7257629),40.7257629,-73.9937321,Z??rcher Studio,Tu-Sa 12:00-18:00; Su 14:00-18:00,gallery,https://galeriezurcher.com,POINT (-73.9937321 40.7257629),114,Greenwich Village South
20,35,New York,47,10012.0,Great Jones Street,Immerse yourself in the captivating world of art as you explore marvellous the pieces that this gallery has to offer,POINT (-73.992545 40.7265986),40.7265986,-73.992545,La MaMa Galleria,Th-Su 13:00-19:00,gallery,https://lamama.org,POINT (-73.992545 40.7265986),114,Greenwich Village South
154,33,New York,526,10012.0,Laguardia Place,Take a trip to the past as you travel by visiting this museum as you observing the rich history provided,POINT (-73.99882 40.7284684),40.7284684,-73.99882,The Renee and Chaim Gross Foundation,"Th,Fr 13:00-17:00",museum,http://www.rcgrossfoundation.org/,POINT (-73.99882 40.7284684),114,Greenwich Village South
21,48,New York,860,10019.0,11th Avenue,Immerse yourself in the captivating world of art as you explore marvellous the pieces that this gallery has to offer,POINT (-73.9902725 40.771366),40.771366,-73.9902725,Anya & Andrew Shiva Gallery,Mo-Fr 10:00-18:00,gallery,http://shivagallery.org,POINT (-73.9902725 40.771366),143,Lincoln Square West
22,53,New York,149,10002.0,Allen Street,Immerse yourself in the captivating world of art as you explore marvellous the pieces that this gallery has to offer,POINT (-73.9892808 40.720719),40.720719,-73.9892808,Krause Gallery,We-Su 12:00-18:00,gallery,https://krausegallery.com,POINT (-73.9892808 40.720719),148,Lower East Side
23,54,New York,94,10002.0,Allen Street,Immerse yourself in the captivating world of art as you explore marvellous the pieces that this gallery has to offer,POINT (-73.9904291 40.7185164),40.7185164,-73.9904291,Magenta Plains,We-Su 11:00-18:00,gallery,http://www.magentaplains.com,POINT (-73.9904291 40.7185164),148,Lower East Side
24,55,New York,155,10002.0,Suffolk Street,Immerse yourself in the captivating world of art as you explore marvellous the pieces that this gallery has to offer,POINT (-73.9852723 40.7208065),40.7208065,-73.9852723,Morgan Presents,Tu-Sa 10:00-18:00,gallery,https://www.morgan-presents.com/,POINT (-73.9852723 40.7208065),148,Lower East Side
25,56,New York,119,10002.0,Ludlow Street,Immerse yourself in the captivating world of art as you explore marvellous the pieces that this gallery has to offer,POINT (-73.9887194 40.7196295),40.7196295,-73.9887194,Con Artist Collective,Mo-Sa 11:00-19:00,gallery,https://conartistnyc.com,POINT (-73.9887194 40.7196295),148,Lower East Side
26,57,New York,130,10002.0,Orchard Street,Immerse yourself in the captivating world of art as you explore marvellous the pieces that this gallery has to offer,POINT (-73.9892959 40.7196517),40.7196517,-73.9892959,Perrotin New York,Tu-Sa 10:00-18:00,gallery,https://perrotin.com,POINT (-73.9892959 40.7196517),148,Lower East Side
27,58,New York,131,10002.0,Allen Street,"Contemporary art gallery with a new media focus, showcasing both established and emerging artists.",POINT (-73.990232 40.7200826),40.7200826,-73.990232,Bitforms Gallery,We-Sa 11:00-18:00; Su 12:00-18:00,gallery,https://bitforms.art,POINT (-73.990232 40.7200826),148,Lower East Side
28,59,New York,55,10002.0,Delancey Street,Immerse yourself in the captivating world of art as you explore marvellous the pieces that this gallery has to offer,POINT (-73.9911739 40.7191881),40.7191881,-73.9911739,James Fuentes LLC,We-Su 10:00-18:00,gallery,https://jamesfuentes.com/,POINT (-73.9911739 40.7191881),148,Lower East Side
29,60,New York,16B,10002.0,Orchard Street,Chinatown Soup is a creative community in downtown New York.,POINT (-73.9916176 40.7151986),40.7151986,-73.9916176,Chinatown Soup,Mo-Sa 12:00-19:00,gallery,https://chinatownsoup.nyc,POINT (-73.9916176 40.7151986),148,Lower East Side
30,62,New York,36,10002.0,Orchard Street,Immerse yourself in the captivating world of art as you explore marvellous the pieces that this gallery has to offer,POINT (-73.9912916 40.7158321),40.7158321,-73.9912916,Miguel Abreu Gallery,We-Su 10:00-18:00,gallery,https://miguelabreugallery.com/,POINT (-73.9912916 40.7158321),148,Lower East Side
163,51,New York,235,10002.0,Bowery,Take a trip to the past as you travel by visiting this museum as you observing the rich history provided,POINT (-73.9928349 40.722347),40.722347,-73.9928349,New Museum,Tu-Su 11:00-18:00,museum,https://www.newmuseum.org/,POINT (-73.9928349 40.722347),148,Lower East Side
164,52,New York,103,10002.0,Orchard Street,Take a trip to the past as you travel by visiting this museum as you observing the rich history provided,POINT (-73.9900266 40.7187837),40.7187837,-73.9900266,Lower East Side Tenement Museum,Mo-Su 10:00-18:00,museum,https://www.tenement.org/,POINT (-73.9900266 40.7187837),148,Lower East Side
165,63,New York,79,10002.0,Essex Street,Take a trip to the past as you travel by visiting this museum as you observing the rich history provided,POINT (-73.9886491 40.718097),40.718097,-73.9886491,International Center of Photography,11:00-19:00; Tu off; Th 11:00-21:00,museum,https://www.icp.org/,POINT (-73.9886491 40.718097),148,Lower East Side
32,79,New York,204,10038.0,Front Street,,POINT ( -74.00326409942522 40.70708707897607),40.70708708,-74.0032641,Bright Moments New York Art Gallery,Tu-Fr 12:00-17:00,gallery,http://www.brightmoments.io/,POINT (-74.00326409942522 40.70708707897607),209,Seaport
33,80,New York,141,10012.0,Prince Street,Immerse yourself in the captivating world of art as you explore marvellous the pieces that this gallery has to offer,POINT (-74.0005096 40.7256775),40.7256775,-74.0005096,Louis K.Meisel Gallery,Mo-Su 10:00-17:00,gallery,https://www.meiselgallery.com/,POINT (-74.0005096 40.7256775),211,SoHo
34,87,New York,57,10013.0,Walker Street,Immerse yourself in the captivating world of art as you explore marvellous the pieces that this gallery has to offer,POINT (-74.0032329 40.7188402),40.7188402,-74.0032329,David Lewis Gallery,Tu-Sa 10:00-18:00,gallery,https://www.davidlewisgallery.com/,POINT (-74.0032329 40.7188402),231,TriBeCa/Civic Center
171,85,New York,49,10007.0,Chambers Street,Take a trip to the past as you travel by visiting this museum as you observing the rich history provided,POINT (-74.005072 40.7137437),40.7137437,-74.005072,Hall des Lumi??res,10:00-18:00; Tu off; Th-Sa 10:00-22:00,museum,https://www.halldeslumieres.com/,POINT (-74.005072 40.7137437),231,TriBeCa/Civic Center
172,86,New York,4,10013.0,Cortlandt Alley,tiny exhibit space in a disused elevator,POINT (-74.0028203 40.7173656),40.7173656,-74.0028203,Mmuseumm,"Sa-Su 12:00-18:00 open ""Museum"" || 00:00-24:00 open ""Viewing windows""",museum,http://www.mmuseumm.com/,POINT (-74.0028203 40.7173656),231,TriBeCa/Civic Center
35,88,New York,127,10002.0,Henry Street,Immerse yourself in the captivating world of art as you explore marvellous the pieces that this gallery has to offer,POINT (-73.9912954 40.713402),40.713402,-73.9912954,FIERMAN,We-Su 12:00-18:00,gallery,https://fierman.nyc,POINT (-73.9912954 40.713402),232,Two Bridges/Seward Park
36,89,New York,165,10002.0,East Broadway,Immerse yourself in the captivating world of art as you explore marvellous the pieces that this gallery has to offer,POINT (-73.9899544 40.7139131),40.7139131,-73.9899544,Reena Spauldings Fine Art,Th-Su 12:00-18:00,gallery,https://www.reenaspaulings.com/,POINT (-73.9899544 40.7139131),232,Two Bridges/Seward Park
37,90,New York,191,10002.0,Henry Street,Lazy Susan Gallery is a creative project space with a revolving roster of curators and artists. Open January 2016 in the Lower East Side of NYC.,POINT (-73.9879511 40.7137046),40.7137046,-73.9879511,Lazy Susan Gallery,Mo-Su 12:00-18:00,gallery,http://lazysusan.nyc,POINT (-73.9879511 40.7137046),232,Two Bridges/Seward Park
38,94,New York,17,10011.0,West 17th Street,Immerse yourself in the captivating world of art as you explore marvellous the pieces that this gallery has to offer,POINT (-73.9932713 40.7385275),40.7385275,-73.9932713,The 8th Floor Gallery,Th-Sa 11:00-18:00,gallery,https://www.the8thfloor.org,POINT (-73.9932713 40.7385275),234,Union Sq
173,92,New York,223,10016.0,5th Avenue,Take a trip to the past as you travel by visiting this museum as you observing the rich history provided,POINT (-73.9873576 40.7440374),40.7440374,-73.9873576,Museum of Sex,"Mo-Th, Su 10:30-22:00; Fr, Sa 10:30-23:00",museum,https://www.museumofsex.com/,POINT (-73.9873576 40.7440374),234,Union Sq
174,93,New York,11,10010.0,East 26th Street,"Award winning museum that highlights the role of mathematics in illuminating the patterns and structures all around us. Its dynamic exhibits, gallery, and programs are designed to stimulate inquiry, spark curiosity, and reveal the wonders of mathematics.",POINT (-73.9873437 40.7432428),40.7432428,-73.9873437,National Museum of Mathematics,Mo-Su 10:00-17:00,museum,https://momath.org/,POINT (-73.9873437 40.7432428),234,Union Sq
195,76,New York,11,10010.0,Madison Avenue,,POINT(-73.98802066091562 40.7422926162491),40.74229262,-73.98802066,Madison Square Park,Mo-Su 06:00- 23:00,park,http://www.madisonsquarepark.org/,POINT (-73.98802066091562 40.7422926162491),234,Union Sq
39,97,New York,38,10021.0,East 70th Street,Immerse yourself in the captivating world of art as you explore marvellous the pieces that this gallery has to offer,POINT (-73.965721 40.7700521),40.7700521,-73.965721,Michael Altman Fine Art,Mo-Fr 10:00-17:00; PH off,gallery,https://mnafineart.com/,POINT (-73.965721 40.7700521),237,Upper East Side South
159,46,New York,725,10021.0,Park Avenue,,POINT (-73.96445564742066 40.77016065413637),40.77016065,-73.96445565,Asia Society and Museum,Tu-Su 11:00-17:00,museum,http://asiasociety.org/new-york,POINT (-73.96445564742066 40.77016065413637),237,Upper East Side South
177,98,New York,128,10065.0,East 63rd Street,Take a trip to the past as you travel by visiting this museum as you observing the rich history provided,POINT (-73.966827 40.7648187),40.7648187,-73.966827,Society of Illustrators,We-Sa 11:00-17:00,museum,https://societyillustrators.org/,POINT (-73.966827 40.7648187),237,Upper East Side South
178,99,New York,945,10021.0,Madison Avenue,Take a trip to the past as you travel by visiting this museum as you observing the rich history provided,POINT (-73.9639898 40.7734755),40.7734755,-73.9639898,Frick Madison,Th-Su 10:00-18:00,museum,https://www.frick.org/,POINT (-73.9639898 40.7734755),237,Upper East Side South
40,100,New York,18,10024.0,W 86th Street,,POINT(-73.970707215744 40.78591623075336),40.78591623,-73.97070722,Bard Graduate Center Gallery,We 11:00-20:00; Th-Su 11:00-17:00,gallery,http://www.bgc.bard.edu/,POINT (-73.970707215744 40.78591623075336),238,Upper West Side North
41,106,New York,515,10011.0,West 24th Street,Immerse yourself in the captivating world of art as you explore marvellous the pieces that this gallery has to offer,POINT (-74.004588 40.7489761),40.7489761,-74.004588,Gladstone Gallery,Tu-sa 10:00-18:00,gallery,https://gladstonegallery.com,POINT (-74.004588 40.7489761),246,West Chelsea/Hudson Yards
42,108,New York,555,10011.0,West 21st Street,Immerse yourself in the captivating world of art as you explore marvellous the pieces that this gallery has to offer,POINT (-74.0075391 40.7475429),40.7475429,-74.0075391,303 Gallery,Tu-Sa 11:00-17:00,gallery,https://www.303gallery.com,POINT (-74.0075391 40.7475429),246,West Chelsea/Hudson Yards
43,109,New York,540,10001.0,West 25th Street,Immerse yourself in the captivating world of art as you explore marvellous the pieces that this gallery has to offer,POINT (-74.0049685 40.7495759),40.7495759,-74.0049685,Pace Gallery,Tu-Sa 10:00-18:00,gallery,https://www.pacegallery.com/galleries/new-york/,POINT (-74.0049685 40.7495759),246,West Chelsea/Hudson Yards
44,110,New York,500A,10011.0,West 21st Street,Immerse yourself in the captivating world of art as you explore marvellous the pieces that this gallery has to offer,POINT (-74.0054994 40.7464281),40.7464281,-74.0054994,Nohra Haime Gallery,Tu-Sa 10:00-18:00,gallery,https://nohrahaimegallery.com,POINT (-74.0054994 40.7464281),246,West Chelsea/Hudson Yards
45,111,New York,534,10001.0,West 26th Street,Immerse yourself in the captivating world of art as you explore marvellous the pieces that this gallery has to offer,POINT (-74.0044964 40.7501321),40.7501321,-74.0044964,Mitchell-Innes & Nash Art Gallery,Tu-Sa 10:00-18:00,gallery,https://www.miandn.com,POINT (-74.0044964 40.7501321),246,West Chelsea/Hudson Yards
46,112,New York,526,10001.0,West 26th Street,Immerse yourself in the captivating world of art as you explore marvellous the pieces that this gallery has to offer,POINT (-74.0041806 40.7500174),40.7500174,-74.0041806,Rick Wester Fine Art,We-Sa 11:00-18:00,gallery,https://www.rickwesterfineart.com,POINT (-74.0041806 40.7500174),246,West Chelsea/Hudson Yards
47,113,New York,528,10001.0,West 26th Street,Immerse yourself in the captivating world of art as you explore marvellous the pieces that this gallery has to offer,POINT (-74.0043727 40.7500805),40.7500805,-74.0043727,Galerie Lelong & Co.,Tu-Sa 10:00-18:00,gallery,https://www.galerielelong.com,POINT (-74.0043727 40.7500805),246,West Chelsea/Hudson Yards
48,114,New York,524,10001.0,West 26th Street,Immerse yourself in the captivating world of art as you explore marvellous the pieces that this gallery has to offer,POINT (-74.0040157 40.7499492),40.7499492,-74.0040157,Berry Campbell Gallery,Tu-Sa 10:00-18:00,gallery,https://berrycampbell.com,POINT (-74.0040157 40.7499492),246,West Chelsea/Hudson Yards
49,115,New York,526,10001.0,West 26th Street,Immerse yourself in the captivating world of art as you explore marvellous the pieces that this gallery has to offer,POINT (-74.0042111 40.7499804),40.7499804,-74.0042111,Caelum Gallery,Mo-Sa 12:00-18:00,gallery,https://www.caelumgallery.com,POINT (-74.0042111 40.7499804),246,West Chelsea/Hudson Yards
50,116,New York,514,10001.0,West 26th Street,Immerse yourself in the captivating world of art as you explore marvellous the pieces that this gallery has to offer,POINT (-74.0037006 40.7498115),40.7498115,-74.0037006,Fergus McCaffrey Gallery,Tu-Sa 10:00-18:00,gallery,https://fergusmccaffrey.com,POINT (-74.0037006 40.7498115),246,West Chelsea/Hudson Yards
51,117,New York,508,10001.0,West 26th Street,Immerse yourself in the captivating world of art as you explore marvellous the pieces that this gallery has to offer,POINT (-74.0035852 40.7497696),40.7497696,-74.0035852,Greene Naftali Gallery,Tu-Sa 10:00-18:00,gallery,https://greenenaftaligallery.com,POINT (-74.0035852 40.7497696),246,West Chelsea/Hudson Yards
52,118,New York,545,10001.0,West 25th Street,Immerse yourself in the captivating world of art as you explore marvellous the pieces that this gallery has to offer,POINT (-74.005004 40.7498665),40.7498665,-74.005004,Marlborough Gallery,Tu-Sa 10:00-18:00,gallery,https://www.marlboroughnewyork.com,POINT (-74.005004 40.7498665),246,West Chelsea/Hudson Yards
53,119,New York,547,10001.0,West 25th Street,Immerse yourself in the captivating world of art as you explore marvellous the pieces that this gallery has to offer,POINT (-74.0051872 40.7499342),40.7499342,-74.0051872,Cheim & Read,Tu-Sa 10:00-18:00,gallery,https://www.cheimread.com,POINT (-74.0051872 40.7499342),246,West Chelsea/Hudson Yards
54,120,New York,555,10001.0,West 25th Street,Immerse yourself in the captivating world of art as you explore marvellous the pieces that this gallery has to offer,POINT (-74.0054024 40.7500313),40.7500313,-74.0054024,Gallery Henoch,Tu-Sa 10:30-18:00,gallery,https://www.galleryhenoch.com,POINT (-74.0054024 40.7500313),246,West Chelsea/Hudson Yards
55,121,New York,545,10001.0,West 25th Street,Immerse yourself in the captivating world of art as you explore marvellous the pieces that this gallery has to offer,POINT (-74.0055421 40.749778),40.749778,-74.0055421,The FLAG Art Foundation,We-Sa 11:00-17:00,gallery,https://www.flagartfoundation.org,POINT (-74.0055421 40.749778),246,West Chelsea/Hudson Yards
56,122,New York,520,10001.0,West 25th Street,Immerse yourself in the captivating world of art as you explore marvellous the pieces that this gallery has to offer,POINT (-74.0042332 40.7492373),40.7492373,-74.0042332,Petzel Gallery,tu-sa 10:00-18:00,gallery,https://www.petzel.com,POINT (-74.0042332 40.7492373),246,West Chelsea/Hudson Yards
57,123,New York,501,10011.0,West 24th Street,Immerse yourself in the captivating world of art as you explore marvellous the pieces that this gallery has to offer,POINT (-74.0038323 40.7485527),40.7485527,-74.0038323,Lehmann Maupin,Tu-Sa 10:00-18:00,gallery,https://www.lehmannmaupin.com,POINT (-74.0038323 40.7485527),246,West Chelsea/Hudson Yards
58,124,New York,505,10011.0,West 24th Street,Immerse yourself in the captivating world of art as you explore marvellous the pieces that this gallery has to offer,POINT (-74.0040119 40.7486434),40.7486434,-74.0040119,Silverlens Galleries,Tu-Sa 10:00-18:00,gallery,https://www.silverlensgalleries.com,POINT (-74.0040119 40.7486434),246,West Chelsea/Hudson Yards
59,125,New York,509,10011.0,West 24th Street,Immerse yourself in the captivating world of art as you explore marvellous the pieces that this gallery has to offer,POINT (-74.0043141 40.7487557),40.7487557,-74.0043141,Marianne Boesky Gallery,Tu-Sa 10:00-18:00,gallery,https://marianneboeskygallery.com,POINT (-74.0043141 40.7487557),246,West Chelsea/Hudson Yards
60,126,New York,507,10011.0,West 24th Street,Immerse yourself in the captivating world of art as you explore marvellous the pieces that this gallery has to offer,POINT (-74.004134 40.7486851),40.7486851,-74.004134,Marianne Boesky Gallery,Tu-Sa 10:00-18:00,gallery,https://marianneboeskygallery.com,POINT (-74.004134 40.7486851),246,West Chelsea/Hudson Yards
61,127,New York,531,10011.0,West 24th Street,Immerse yourself in the captivating world of art as you explore marvellous the pieces that this gallery has to offer,POINT (-74.0050793 40.7491116),40.7491116,-74.0050793,Luhring Augustine Gallery,Tu-Sa 10:00-18:00,gallery,https://luhringaugustine.com,POINT (-74.0050793 40.7491116),246,West Chelsea/Hudson Yards
62,128,New York,541,10011.0,West 24th Street,Immerse yourself in the captivating world of art as you explore marvellous the pieces that this gallery has to offer,POINT (-74.0054902 40.7492448),40.7492448,-74.0054902,Gagosian,Tu-Sa 10:00-18:00,gallery,https://gagosian.com,POINT (-74.0054902 40.7492448),246,West Chelsea/Hudson Yards
63,129,New York,560,10011.0,West 24th Street,Immerse yourself in the captivating world of art as you explore marvellous the pieces that this gallery has to offer,POINT (-74.0061341 40.7492207),40.7492207,-74.0061341,C24 Gallery,Tu-Sa 10:00-18:00,gallery,https://www.c24gallery.com,POINT (-74.0061341 40.7492207),246,West Chelsea/Hudson Yards
64,130,New York,536,10011.0,West 24th Street,Immerse yourself in the captivating world of art as you explore marvellous the pieces that this gallery has to offer,POINT (-74.0055599 40.7490119),40.7490119,-74.0055599,Fredericks & Freiser,Tu-Sa 10:00-18:00,gallery,https://fredericksfreisergallery.com,POINT (-74.0055599 40.7490119),246,West Chelsea/Hudson Yards
65,131,New York,534,10001.0,West 24th Street,Immerse yourself in the captivating world of art as you explore marvellous the pieces that this gallery has to offer,POINT (-74.0054342 40.7489832),40.7489832,-74.0054342,Philippe Labaune Gallery,Tu-Sa 10:00-18:00,gallery,https://www.philippelabaune.com,POINT (-74.0054342 40.7489832),246,West Chelsea/Hudson Yards
66,132,New York,532,10011.0,West 24th Street,Immerse yourself in the captivating world of art as you explore marvellous the pieces that this gallery has to offer,POINT (-74.0053524 40.7489431),40.7489431,-74.0053524,Anna Zorina Gallery,Tu-Sa 10:00-18:00,gallery,https://www.annazorinagallery.com,POINT (-74.0053524 40.7489431),246,West Chelsea/Hudson Yards
67,133,New York,530,10011.0,West 24th Street,Immerse yourself in the captivating world of art as you explore marvellous the pieces that this gallery has to offer,POINT (-74.0052508 40.7489086),40.7489086,-74.0052508,Cavalier Gallery,Tu-Sa 10:00-18:00,gallery,https://www.cavaliergalleries.com,POINT (-74.0052508 40.7489086),246,West Chelsea/Hudson Yards
68,134,New York,524,10011.0,West 24th Street,Immerse yourself in the captivating world of art as you explore marvellous the pieces that this gallery has to offer,POINT (-74.0049963 40.748787),40.748787,-74.0049963,Hunter Dunbar Projects,Tu-Sa 10:00-18:00,gallery,https://www.hunterdunbarprojects.com,POINT (-74.0049963 40.748787),246,West Chelsea/Hudson Yards
69,135,New York,520,10011.0,West 24th Street,Immerse yourself in the captivating world of art as you explore marvellous the pieces that this gallery has to offer,POINT (-74.0048372 40.7487261),40.7487261,-74.0048372,Unix Gallery,Tu-Sa 10:00-18:00,gallery,https://www.unixgallery.com,POINT (-74.0048372 40.7487261),246,West Chelsea/Hudson Yards
70,136,New York,522,10011.0,West 24th Street,Immerse yourself in the captivating world of art as you explore marvellous the pieces that this gallery has to offer,POINT (-74.0048993 40.7487583),40.7487583,-74.0048993,Susan Inglett Gallery,Tu-Sa 10:00-18:00,gallery,https://www.inglettgallery.com,POINT (-74.0048993 40.7487583),246,West Chelsea/Hudson Yards
71,137,New York,508,10011.0,West 24th Street,Immerse yourself in the captivating world of art as you explore marvellous the pieces that this gallery has to offer,POINT (-74.0044742 40.7485502),40.7485502,-74.0044742,Lisson Gallery,Tu-Sa 10:00-18:00,gallery,https://www.lissongallery.com,POINT (-74.0044742 40.7485502),246,West Chelsea/Hudson Yards
72,138,New York,504,10011.0,West 24th Street,Immerse yourself in the captivating world of art as you explore marvellous the pieces that this gallery has to offer,POINT (-74.0043407 40.7485172),40.7485172,-74.0043407,Lisson Gallery,Tu-Sa 10:00-18:00,gallery,https://www.lissongallery.com,POINT (-74.0043407 40.7485172),246,West Chelsea/Hudson Yards
73,139,New York,537b,10011.0,West 23rd Street,Immerse yourself in the captivating world of art as you explore marvellous the pieces that this gallery has to offer,POINT (-74.0055651 40.7484842),40.7484842,-74.0055651,Asya Geisberg Gallery,Tu-Sa 11:00-18:00,gallery,https://www.asyageisberggallery.com,POINT (-74.0055651 40.7484842),246,West Chelsea/Hudson Yards
74,140,New York,539,10011.0,West 23rd Street,Immerse yourself in the captivating world of art as you explore marvellous the pieces that this gallery has to offer,POINT (-74.0056655 40.7485387),40.7485387,-74.0056655,Margaret Thatcher Projects,Tu-Sa 11:00-18:00,gallery,https://thatcherprojects.com,POINT (-74.0056655 40.7485387),246,West Chelsea/Hudson Yards
75,141,New York,559,10011.0,West 23rd Street,Immerse yourself in the captivating world of art as you explore marvellous the pieces that this gallery has to offer,POINT (-74.006396 40.7488232),40.7488232,-74.006396,Crossing Art,Tu-Sa 10:00-18:00,gallery,https://crossingart.com,POINT (-74.006396 40.7488232),246,West Chelsea/Hudson Yards
76,142,New York,520,10011.0,West 23rd Street,Immerse yourself in the captivating world of art as you explore marvellous the pieces that this gallery has to offer,POINT (-74.0049853 40.7478552),40.7478552,-74.0049853,Fremin Gallery,Tu-Sa 11:00-18:00,gallery,https://fremingallery.com,POINT (-74.0049853 40.7478552),246,West Chelsea/Hudson Yards
77,143,New York,515,10001.0,West 29th Street,Immerse yourself in the captivating world of art as you explore marvellous the pieces that this gallery has to offer,POINT (-74.0022364 40.75193),40.75193,-74.0022364,Malin Gallery,Tu-Sa 10:00-18:00,gallery,https://www.malingallery.com,POINT (-74.0022364 40.75193),246,West Chelsea/Hudson Yards
78,144,New York,525,10001.0,West 29th Street,Immerse yourself in the captivating world of art as you explore marvellous the pieces that this gallery has to offer,POINT (-74.0026522 40.7521088),40.7521088,-74.0026522,Microscope Gallery,Tu-Sa 12:00-18:00,gallery,https://microscopegallery.com,POINT (-74.0026522 40.7521088),246,West Chelsea/Hudson Yards
79,145,New York,548,10001.0,West 28th Street,Immerse yourself in the captivating world of art as you explore marvellous the pieces that this gallery has to offer,POINT (-74.0041354 40.7516496),40.7516496,-74.0041354,Viridian Artists,Tu-Sa 10:00-18:00,gallery,https://viridianartist.com,POINT (-74.0041354 40.7516496),246,West Chelsea/Hudson Yards
80,146,New York,548,10001.0,West 28th Street,Immerse yourself in the captivating world of art as you explore marvellous the pieces that this gallery has to offer,POINT (-74.0041652 40.7516054),40.7516054,-74.0041652,Carter Burden Gallery,Tu-Fr 11:00-17:00; Sa 11:00-18:00,gallery,https://www.carterburdengallery.org,POINT (-74.0041652 40.7516054),246,West Chelsea/Hudson Yards
81,147,New York,547,10001.0,West 27th Street,Immerse yourself in the captivating world of art as you explore marvellous the pieces that this gallery has to offer,POINT (-74.0045116 40.7512794),40.7512794,-74.0045116,Blue Mountain Gallery,Tu-Sa 11:00-18:00,gallery,https://www.bluemountaingallery.org,POINT (-74.0045116 40.7512794),246,West Chelsea/Hudson Yards
82,148,New York,547,10001.0,West 27th Street,Immerse yourself in the captivating world of art as you explore marvellous the pieces that this gallery has to offer,POINT (-74.0044236 40.7512504),40.7512504,-74.0044236,Montserrat Contemporary Art,We-Sa 12:00-18:00,gallery,https://montserrat.us,POINT (-74.0044236 40.7512504),246,West Chelsea/Hudson Yards
83,149,New York,547,10001.0,West 27th Street,Immerse yourself in the captivating world of art as you explore marvellous the pieces that this gallery has to offer,POINT (-74.0044835 40.7513197),40.7513197,-74.0044835,Bowery Gallery,Tu-Sa 11:00-18:00,gallery,http://www.bowerygallery.org,POINT (-74.0044835 40.7513197),246,West Chelsea/Hudson Yards
84,150,New York,547,10001.0,West 27th Street,Immerse yourself in the captivating world of art as you explore marvellous the pieces that this gallery has to offer,POINT (-74.004452 40.7513549),40.7513549,-74.004452,Prince Street Gallery,Tu-Sa 11:00-18:00,gallery,https://princestreetgallery.com,POINT (-74.004452 40.7513549),246,West Chelsea/Hudson Yards
85,151,New York,547,10001.0,West 27th Street,Immerse yourself in the captivating world of art as you explore marvellous the pieces that this gallery has to offer,POINT (-74.0043977 40.7512854),40.7512854,-74.0043977,The Painting Center,Tu 10:00-16:00; We-Sa 11:00-18:00,gallery,https://www.thepaintingcenter.org,POINT (-74.0043977 40.7512854),246,West Chelsea/Hudson Yards
86,152,New York,515,10001.0,West 27th Street,Immerse yourself in the captivating world of art as you explore marvellous the pieces that this gallery has to offer,POINT (-74.0031538 40.7507088),40.7507088,-74.0031538,Ross + Kramer Gallery,Tu-Sa 11:00-18:00,gallery,https://rkgallery.com,POINT (-74.0031538 40.7507088),246,West Chelsea/Hudson Yards
87,153,New York,509,10001.0,West 27th Street,Immerse yourself in the captivating world of art as you explore marvellous the pieces that this gallery has to offer,POINT (-74.0029311 40.750597),40.750597,-74.0029311,Kasmin Gallery,Tu-Sa 10:00-18:00,gallery,https://www.kasmingallery.com,POINT (-74.0029311 40.750597),246,West Chelsea/Hudson Yards
88,154,New York,507,10001.0,West 27th Street,Immerse yourself in the captivating world of art as you explore marvellous the pieces that this gallery has to offer,POINT (-74.0027353 40.7505158),40.7505158,-74.0027353,The Global Fine Art Contemporary Art Gallery,-8930,gallery,https://www.artcapitalgain.com,POINT (-74.0027353 40.7505158),246,West Chelsea/Hudson Yards
89,155,New York,297,10001.0,10th Avenue,Immerse yourself in the captivating world of art as you explore marvellous the pieces that this gallery has to offer,POINT (-74.0024698 40.750406),40.750406,-74.0024698,Kasmin Gallery,Tu-Sa 10:00-18:00,gallery,https://www.kasmingallery.com,POINT (-74.0024698 40.750406),246,West Chelsea/Hudson Yards
90,156,New York,293,10001.0,10th Avenue,Immerse yourself in the captivating world of art as you explore marvellous the pieces that this gallery has to offer,POINT (-74.0026414 40.7501683),40.7501683,-74.0026414,Galerie Templon,Tu-Sa 10:00-18:00,gallery,https://www.templon.com,POINT (-74.0026414 40.7501683),246,West Chelsea/Hudson Yards
91,157,New York,520,10001.0,West 27th Street,Immerse yourself in the captivating world of art as you explore marvellous the pieces that this gallery has to offer,POINT (-74.0034944 40.7505666),40.7505666,-74.0034944,Nancy Hoffman Gallery,Tu-Sa 11:00-17:30,gallery,https://www.nancyhoffmangallery.com,POINT (-74.0034944 40.7505666),246,West Chelsea/Hudson Yards
92,158,New York,511,10011.0,West 22nd Street,Immerse yourself in the captivating world of art as you explore marvellous the pieces that this gallery has to offer,POINT (-74.0053206 40.7474277),40.7474277,-74.0053206,Miles McEnery Gallery,Tu-Sa 10:00-18:00,gallery,https://www.milesmcenery.com,POINT (-74.0053206 40.7474277),246,West Chelsea/Hudson Yards
93,159,New York,508,10001.0,West 28th Street,Immerse yourself in the captivating world of art as you explore marvellous the pieces that this gallery has to offer,POINT (-74.0024163 40.7509297),40.7509297,-74.0024163,Sugarlift Gallery,Tu-Fr 10:00-18:00; Sa 12:00-18:00,gallery,https://www.sugarlift.com,POINT (-74.0024163 40.7509297),246,West Chelsea/Hudson Yards
94,160,New York,521,10001.0,West 26th Street,Immerse yourself in the captivating world of art as you explore marvellous the pieces that this gallery has to offer,POINT (-74.0037157 40.7501702),40.7501702,-74.0037157,Davidson Gallery,Tu-Sa 11:00-18:00,gallery,http://www.davidsongallery.com,POINT (-74.0037157 40.7501702),246,West Chelsea/Hudson Yards
95,161,New York,515,10001.0,West 26th Street,Immerse yourself in the captivating world of art as you explore marvellous the pieces that this gallery has to offer,POINT (-74.0035864 40.7500552),40.7500552,-74.0035864,Albertz Benda Gallery,Mo-Fr 10:00-18:00,gallery,http://www.albertzbenda.com,POINT (-74.0035864 40.7500552),246,West Chelsea/Hudson Yards
96,162,New York,521,10001.0,West 26th Street,Immerse yourself in the captivating world of art as you explore marvellous the pieces that this gallery has to offer,POINT (-74.0037594 40.7501299),40.7501299,-74.0037594,Hollis Taggart Gallery,Tu-Sa 11:00-17:00,gallery,https://www.hollistaggart.com,POINT (-74.0037594 40.7501299),246,West Chelsea/Hudson Yards
97,163,New York,515,10001.0,West 26th Street,Immerse yourself in the captivating world of art as you explore marvellous the pieces that this gallery has to offer,POINT (-74.0035148 40.7501029),40.7501029,-74.0035148,Friedman Benda Gallery,Tu-Sa 10:00-18:00,gallery,https://friedmanbenda.com,POINT (-74.0035148 40.7501029),246,West Chelsea/Hudson Yards
98,164,New York,515,10001.0,West 26th Street,Immerse yourself in the captivating world of art as you explore marvellous the pieces that this gallery has to offer,POINT (-74.0035878 40.7501197),40.7501197,-74.0035878,Ryan Lee Gallery,Tu-Sa 10:00-18:00,gallery,https://ryanleegallery.com,POINT (-74.0035878 40.7501197),246,West Chelsea/Hudson Yards
99,165,New York,526,10001.0,West 26th Street,Immerse yourself in the captivating world of art as you explore marvellous the pieces that this gallery has to offer,POINT (-74.0041571 40.7499597),40.7499597,-74.0041571,Thomas Erben Gallery,Tu-Sa 11:00-18:00,gallery,https://www.thomaserben.com,POINT (-74.0041571 40.7499597),246,West Chelsea/Hudson Yards
100,166,New York,526,10001.0,West 26th Street,Immerse yourself in the captivating world of art as you explore marvellous the pieces that this gallery has to offer,POINT (-74.0042354 40.7499417),40.7499417,-74.0042354,BravinLee Gallery,We-Sa 12:00-17:00,gallery,https://www.bravinlee.com,POINT (-74.0042354 40.7499417),246,West Chelsea/Hudson Yards
101,167,New York,526,10001.0,West 26th Street,Immerse yourself in the captivating world of art as you explore marvellous the pieces that this gallery has to offer,POINT (-74.0041101 40.7499777),40.7499777,-74.0041101,Morgan Lehman Gallery,Tu-Sa 11:00-18:00,gallery,https://www.morganlehmangallery.com,POINT (-74.0041101 40.7499777),246,West Chelsea/Hudson Yards
102,168,New York,508,10001.0,West 26th Street,Immerse yourself in the captivating world of art as you explore marvellous the pieces that this gallery has to offer,POINT (-74.0036085 40.7497344),40.7497344,-74.0036085,Hesse Flatow Gallery,Tu-Sa 11:00-18:00,gallery,https://hesseflatow.com,POINT (-74.0036085 40.7497344),246,West Chelsea/Hudson Yards
103,169,New York,526,10001.0,West 26th Street,Immerse yourself in the captivating world of art as you explore marvellous the pieces that this gallery has to offer,POINT (-74.0041149 40.749941),40.749941,-74.0041149,Deborah Bell Photographs,Th-Sa 11:00-17:00,gallery,https://www.deborahbellphotographs.com,POINT (-74.0041149 40.749941),246,West Chelsea/Hudson Yards
104,170,New York,510,10001.0,West 26th Street,Immerse yourself in the captivating world of art as you explore marvellous the pieces that this gallery has to offer,POINT (-74.0036422 40.7497859),40.7497859,-74.0036422,Alexander Gray Associates Gallery,Tu-Sa 10:30-18:00,gallery,https://alexandergray.com,POINT (-74.0036422 40.7497859),246,West Chelsea/Hudson Yards
105,171,New York,508,10001.0,West 26th Street,Immerse yourself in the captivating world of art as you explore marvellous the pieces that this gallery has to offer,POINT (-74.0036348 40.7497076),40.7497076,-74.0036348,Daniel Cooney Fine Art Gallery,We-Sa 11:00-18:00,gallery,https://www.danielcooneyfineart.com,POINT (-74.0036348 40.7497076),246,West Chelsea/Hudson Yards
106,172,New York,508,10001.0,West 26th Street,Immerse yourself in the captivating world of art as you explore marvellous the pieces that this gallery has to offer,POINT (-74.0036627 40.7496717),40.7496717,-74.0036627,David Richard Gallery,Tu-Sa 10:00-18:00,gallery,https://davidrichardgallery.com,POINT (-74.0036627 40.7496717),246,West Chelsea/Hudson Yards
107,173,New York,526,10001.0,West 26th Street,Immerse yourself in the captivating world of art as you explore marvellous the pieces that this gallery has to offer,POINT (-74.0041512 40.7498958),40.7498958,-74.0041512,David Richard Gallery,Tu-Sa 10:00-18:00,gallery,https://davidrichardgallery.com,POINT (-74.0041512 40.7498958),246,West Chelsea/Hudson Yards
108,174,New York,245,10001.0,10th Avenue,Immerse yourself in the captivating world of art as you explore marvellous the pieces that this gallery has to offer,POINT (-74.0036923 40.7487598),40.7487598,-74.0036923,Yossi Milo Gallery,Tu-Sa 10:00-18:00,gallery,https://www.yossimilo.com/,POINT (-74.0036923 40.7487598),246,West Chelsea/Hudson Yards
109,175,New York,510,10001.0,West 25th Street,Immerse yourself in the captivating world of art as you explore marvellous the pieces that this gallery has to offer,POINT (-74.0039931 40.7491212),40.7491212,-74.0039931,Pace Gallery,Tu-Sa 10:00-18:00,gallery,https://www.pacegallery.com,POINT (-74.0039931 40.7491212),246,West Chelsea/Hudson Yards
110,176,New York,515,10011.0,West 22nd Street,Immerse yourself in the captivating world of art as you explore marvellous the pieces that this gallery has to offer,POINT (-74.0055719 40.7475186),40.7475186,-74.0055719,Miles McEnery Gallery,Tu-Sa 10:00-18:00,gallery,https://www.milesmcenery.com,POINT (-74.0055719 40.7475186),246,West Chelsea/Hudson Yards
111,177,New York,525,10011.0,West 22nd Street,Immerse yourself in the captivating world of art as you explore marvellous the pieces that this gallery has to offer,POINT (-74.0057558 40.7476043),40.7476043,-74.0057558,Miles McEnery Gallery,Tu-Sa 10:00-18:00,gallery,https://www.milesmcenery.com,POINT (-74.0057558 40.7476043),246,West Chelsea/Hudson Yards
112,178,New York,520,10011.0,West 21st Street,Immerse yourself in the captivating world of art as you explore marvellous the pieces that this gallery has to offer,POINT (-74.0062465 40.7467488),40.7467488,-74.0062465,Miles McEnery Gallery,Tu-Sa 10:00-18:00,gallery,https://www.milesmcenery.com,POINT (-74.0062465 40.7467488),246,West Chelsea/Hudson Yards
113,179,New York,525,10011.0,West 22nd Street,Immerse yourself in the captivating world of art as you explore marvellous the pieces that this gallery has to offer,POINT (-74.0057016 40.7475857),40.7475857,-74.0057016,Yancey Richardson Gallery,Tu-Sa 10:00-18:00,gallery,https://www.yanceyrichardson.com,POINT (-74.0057016 40.7475857),246,West Chelsea/Hudson Yards
114,180,New York,535,10011.0,West 22nd Street,Immerse yourself in the captivating world of art as you explore marvellous the pieces that this gallery has to offer,POINT (-74.006149 40.7477676),40.7477676,-74.006149,DC Moore Gallery,Tu-Sa 10:00-18:00,gallery,https://www.dcmooregallery.com,POINT (-74.006149 40.7477676),246,West Chelsea/Hudson Yards
115,181,New York,537,10011.0,West 22nd Street,Immerse yourself in the captivating world of art as you explore marvellous the pieces that this gallery has to offer,POINT (-74.0063018 40.7478387),40.7478387,-74.0063018,Dia Chelsea,We-Sa 12:00-18:00,gallery,https://diaart.org/visit/visit-our-locations-sites/dia-chelsea-new-york-united-states,POINT (-74.0063018 40.7478387),246,West Chelsea/Hudson Yards
116,182,New York,542,10011.0,West 22nd Street,Immerse yourself in the captivating world of art as you explore marvellous the pieces that this gallery has to offer,POINT (-74.0066657 40.7477523),40.7477523,-74.0066657,Hauser & Wirth,Tu-Sa 10:00-18:00,gallery,https://www.hauserwirth.com/locations/10073-hauser-wirth-new-york-22nd-street/,POINT (-74.0066657 40.7477523),246,West Chelsea/Hudson Yards
117,183,New York,534,10011.0,West 22nd Street,Immerse yourself in the captivating world of art as you explore marvellous the pieces that this gallery has to offer,POINT (-74.0063743 40.7476243),40.7476243,-74.0063743,Harper's Chelsea,Tu-Sa 10:00-18:00,gallery,https://www.harpersgallery.com,POINT (-74.0063743 40.7476243),246,West Chelsea/Hudson Yards
118,184,New York,530,10011.0,West 22nd Street,Immerse yourself in the captivating world of art as you explore marvellous the pieces that this gallery has to offer,POINT (-74.0060323 40.7474851),40.7474851,-74.0060323,Sikkema Jenkins & Co.,Tu-Sa 10:00-18:00,gallery,https://www.sikkemajenkinsco.com,POINT (-74.0060323 40.7474851),246,West Chelsea/Hudson Yards
119,185,New York,512,10011.0,West 22nd Street,Immerse yourself in the captivating world of art as you explore marvellous the pieces that this gallery has to offer,POINT (-74.0054315 40.7472321),40.7472321,-74.0054315,Harper's Chelsea,Tu-Sa 10:00-18:00,gallery,https://www.harpersgallery.com,POINT (-74.0054315 40.7472321),246,West Chelsea/Hudson Yards
120,186,New York,511,10011.0,West 21st Street,Immerse yourself in the captivating world of art as you explore marvellous the pieces that this gallery has to offer,POINT (-74.0057122 40.7467918),40.7467918,-74.0057122,Nara Roesler Gallery,Tu-Sa 10:00-18:00,gallery,https://nararoesler.art,POINT (-74.0057122 40.7467918),246,West Chelsea/Hudson Yards
121,187,New York,525,10011.0,West 21st Street,Immerse yourself in the captivating world of art as you explore marvellous the pieces that this gallery has to offer,POINT (-74.0063448 40.7470553),40.7470553,-74.0063448,Tina Kim Gallery,Tu-Sa 10:00-18:00,gallery,https://www.tinakimgallery.com,POINT (-74.0063448 40.7470553),246,West Chelsea/Hudson Yards
122,188,New York,521,10011.0,West 21st Street,Immerse yourself in the captivating world of art as you explore marvellous the pieces that this gallery has to offer,POINT (-74.006111 40.7469617),40.7469617,-74.006111,Kravets Wehby Gallery,Tu-Sa 11:00-18:00,gallery,https://www.kravetswehbygallery.com,POINT (-74.006111 40.7469617),246,West Chelsea/Hudson Yards
123,189,New York,521,10011.0,West 21st Street,Immerse yourself in the captivating world of art as you explore marvellous the pieces that this gallery has to offer,POINT (-74.0062914 40.7470364),40.7470364,-74.0062914,Tanya Bonakdar Gallery,Tu-Sa 10:00-18:00,gallery,https://www.tanyabonakdargallery.com,POINT (-74.0062914 40.7470364),246,West Chelsea/Hudson Yards
124,190,New York,547,10011.0,West 20th Street,Immerse yourself in the captivating world of art as you explore marvellous the pieces that this gallery has to offer,POINT (-74.0076175 40.746867),40.746867,-74.0076175,Hales Gallery,Tu-Sa 10:00-18:00,gallery,https://halesgallery.com,POINT (-74.0076175 40.746867),246,West Chelsea/Hudson Yards
125,191,New York,534,10011.0,West 21st Street,Immerse yourself in the captivating world of art as you explore marvellous the pieces that this gallery has to offer,POINT (-74.0068341 40.7470049),40.7470049,-74.0068341,Paula Cooper Gallery,Tu-Sa 10:00-18:00,gallery,https://www.paulacoopergallery.com,POINT (-74.0068341 40.7470049),246,West Chelsea/Hudson Yards
126,192,New York,530,10011.0,West 21st Street,Immerse yourself in the captivating world of art as you explore marvellous the pieces that this gallery has to offer,POINT (-74.0066777 40.7469471),40.7469471,-74.0066777,Gladstone Gallery,Tu-Sa 10:00-18:00,gallery,https://www.gladstonegallery.com,POINT (-74.0066777 40.7469471),246,West Chelsea/Hudson Yards
127,193,New York,522,10011.0,West 21st Street,Immerse yourself in the captivating world of art as you explore marvellous the pieces that this gallery has to offer,POINT (-74.0063973 40.7468093),40.7468093,-74.0063973,Gagosian,Tu-Sa 10:00-18:00,gallery,https://gagosian.com,POINT (-74.0063973 40.7468093),246,West Chelsea/Hudson Yards
128,194,New York,179,10011.0,10th Avenue,Immerse yourself in the captivating world of art as you explore marvellous the pieces that this gallery has to offer,POINT (-74.0054234 40.7462737),40.7462737,-74.0054234,Galleria Ca' d'Oro,Mo-Fr 10:00-18:00; Sa 11:00-18:00; Su 12:00-17:00,gallery,https://www.galleriacadoro.com,POINT (-74.0054234 40.7462737),246,West Chelsea/Hudson Yards
129,195,New York,501,10011.0,West 20th Street,Immerse yourself in the captivating world of art as you explore marvellous the pieces that this gallery has to offer,POINT (-74.0057581 40.7460607),40.7460607,-74.0057581,Praxis Gallery,Tu-Sa 9:00-17:00,gallery,https://www.praxis-art.com,POINT (-74.0057581 40.7460607),246,West Chelsea/Hudson Yards
130,196,New York,513,10011.0,West 20th Street,Immerse yourself in the captivating world of art as you explore marvellous the pieces that this gallery has to offer,POINT (-74.0062412 40.7462478),40.7462478,-74.0062412,Jack Shainman Gallery,Tu-Sa 10:00-18:00,gallery,https://jackshainman.com,POINT (-74.0062412 40.7462478),246,West Chelsea/Hudson Yards
131,197,New York,515,10011.0,West 20th Street,Immerse yourself in the captivating world of art as you explore marvellous the pieces that this gallery has to offer,POINT (-74.006296 40.7462709),40.7462709,-74.006296,Sean Horton Gallery,We-Sa 12:00-18:00,gallery,https://www.seanhortonpresents.com,POINT (-74.006296 40.7462709),246,West Chelsea/Hudson Yards
132,198,New York,529,10011.0,West 20th Street,Immerse yourself in the captivating world of art as you explore marvellous the pieces that this gallery has to offer,POINT (-74.0068656 40.7465171),40.7465171,-74.0068656,Ricco/Maresca Gallery,Tu-Fr 10:30-18:00; Sa 11:00-18:00,gallery,https://www.riccomaresca.com,POINT (-74.0068656 40.7465171),246,West Chelsea/Hudson Yards
133,199,New York,529,10011.0,West 20th Street,Immerse yourself in the captivating world of art as you explore marvellous the pieces that this gallery has to offer,POINT (-74.0068303 40.7465678),40.7465678,-74.0068303,Kathryn Markel Fine Arts,Tu-Fr 10:00-18:00; Sa 11:00-18:00,gallery,https://www.markelfinearts.com,POINT (-74.0068303 40.7465678),246,West Chelsea/Hudson Yards
134,200,New York,529,10011.0,West 20th Street,Immerse yourself in the captivating world of art as you explore marvellous the pieces that this gallery has to offer,POINT (-74.0068108 40.7465936),40.7465936,-74.0068108,Elizabeth Harris Gallery,Tu-Sa 12:00-18:00,gallery,https://www.ehgallery.com,POINT (-74.0068108 40.7465936),246,West Chelsea/Hudson Yards
135,201,New York,520,10011.0,West 20th Street,Immerse yourself in the captivating world of art as you explore marvellous the pieces that this gallery has to offer,POINT (-74.0067977 40.7462173),40.7462173,-74.0067977,David Kordansky Gallery,Tu-Sa 10:00-18:00,gallery,https://www.davidkordanskygallery.com,POINT (-74.0067977 40.7462173),246,West Chelsea/Hudson Yards
136,202,New York,522,10011.0,West 19th Street,Immerse yourself in the captivating world of art as you explore marvellous the pieces that this gallery has to offer,POINT (-74.0070663 40.7455769),40.7455769,-74.0070663,Slag Gallery,Tu-Fr 10:00-13:00; Tu-Fr 14:00-18:00; Sa 10:00-18:00,gallery,https://www.slaggallery.com,POINT (-74.0070663 40.7455769),246,West Chelsea/Hudson Yards
137,203,New York,100,10011.0,11th Avenue,Immerse yourself in the captivating world of art as you explore marvellous the pieces that this gallery has to offer,POINT (-74.0077206 40.7461924),40.7461924,-74.0077206,Michael Rosenfield Art,Tu-Sa 10:00-18:00,gallery,https://michaelrosenfeldart.com,POINT (-74.0077206 40.7461924),246,West Chelsea/Hudson Yards
184,107,New York,555,10011.0,West 24th Street,Take a trip to the past as you travel by visiting this museum as you observing the rich history provided,POINT (-74.0059445 40.7494423),40.7494423,-74.0059445,Gagosian,Tu-Sa 10:00-18:00,museum,https://gagosian.com,POINT (-74.0059445 40.7494423),246,West Chelsea/Hudson Yards
138,64,New York,150,10025.0,W 100th Street,,POINT (-73.96538484621433 40.80563363228752),40.80563363,-73.96538485,Bloomingdale Library,Mo-Th 10:00-19:00; Fr-Sa 10:00-17:00,library,http://www.nypl.org/locations/bloomingdale,POINT (-73.96538484621433 40.80563363228752),166,Morningside Heights
194,73,New York,,10025.0,W 101st St,,POINT( -73.96711576580026 40.80985511359879),40.8098551,-73.96711577,Riverside Park,Mo-Su 06:00-01:00,park,https://www.nycgovparks.org/parks/riverside-park,POINT (-73.96711576580026 40.80985511359879),166,Morningside Heights
140,4,New York,39,10280.0,Battery Place,Take a trip to the past as you travel by visiting this museum as you observing the rich history provided,POINT (-74.0177051 40.7057229),40.7057229,-74.0177051,Skyscraper Museum,Th-Sa 12:00-18:00,museum,https://skyscraper.org/,POINT (-74.0177051 40.7057229),13,Battery Park City
141,6,New York,319,10025.0,West 107th Street,,POINT (-73.96896876849017 40.803080270673874),40.80308027,-73.96896877,Nicholas Roerich Museum,Tu-Fr 12:00-16:00 Sa-Su; 12:00-17:00,museum,https://www.roerich.org/,POINT (-73.96896876849017 40.803080270673874),24,Bloomingdale
142,9,New York,1000,10028.0,5th Avenue,Take a trip to the past as you travel by visiting this museum as you observing the rich history provided,POINT (-73.9634178 40.7793968),40.7793968,-73.9634178,The Metropolitan Museum of Art,10:00-17:00; Fr-Sa 10:00-21:00; We off,museum,https://www.metmuseum.org/,POINT (-73.9634178 40.7793968),43,Central Park
189,11,New York,,,Central Park,,POINT(-73.96557267440741 40.782765890103136),40.78276589,-73.96557267,Central Park,Mo-Su 06:00- 01:00,park,https://www.centralparknyc.org/,POINT (-73.96557267440741 40.782765890103136),43,Central Park
207,10,New York,,10021.0,East 64th Street,,POINT (-73.97185496091448 40.76803799061872),40.76803799,-73.97185496,Central Park Zoo,Mo-Su 10:00-16:30,zoo,http://www.centralparkzoo.com/,POINT (-73.97185496091448 40.76803799061872),43,Central Park
143,13,New York,215,10013.0,Central Street,,POINT (-73.99901233484601 40.71951053755542),40.71951054,-73.99901233,Museum of Chinese in America,Sa 10:00-18:00,museum,https://www.mocanyc.org/,POINT (-73.99901233484601 40.71951053755542),144,Little Italy/NoLiTa
161,49,New York,215,10013.0,Centre Street,Take a trip to the past as you travel by visiting this museum as you observing the rich history provided,POINT (-73.9990481 40.7194172),40.7194172,-73.9990481,Museum of Chinese in America,"Tu, We, Fr-Su 11:00-18:00; Th 11:00-21:00",museum,https://www.mocanyc.org,POINT (-73.9990481 40.7194172),144,Little Italy/NoLiTa
162,50,New York,558,10012.0,Broadway,Take a trip to the past as you travel by visiting this museum as you observing the rich history provided,POINT (-73.9979055 40.7238654),40.7238654,-73.9979055,Museum of Ice Cream,"Mo, We, Th, Su 10:00-19:00; Fr, Sa 10:00-20:30",museum,https://www.museumoficecream.com/new-york-city,POINT (-73.9979055 40.7238654),144,Little Italy/NoLiTa
144,15,New York,86,10036.0,West 46th Street,"Museum of Marine, Aircraft and Space",POINT (-73.9995256 40.7645198),40.7645198,-73.9995256,Intrepid Museum,Mo-Su 10:00-17:00,museum,https://www.intrepidmuseum.org/,POINT (-73.9995256 40.7645198),50,Clinton West
145,18,New York,1230,10029.0,5th Ave,,POINT (-73.95136338790059 40.793305089024614),40.79330509,-73.95136339,El Museo del Barrio,Th-Su 11:00-17:00,museum,https://www.elmuseo.org/,POINT (-73.95136338790059 40.793305089024614),75,East Harlem South
146,19,New York,1220,10029.0,5th Avenue,Take a trip to the past as you travel by visiting this museum as you observing the rich history provided,POINT (-73.9519079 40.792506),40.792506,-73.9519079,Museum of the City of New York,Fr-Mo 10:00-17:00; Th 10:00-21:00,museum,https://www.mcny.org/,POINT (-73.9519079 40.792506),75,East Harlem South
147,20,New York,1280,10029.0,5th Avenue,Take a trip to the past as you travel by visiting this museum as you observing the rich history provided,POINT (-73.9493338 40.7963422),40.7963422,-73.9493338,The Africa Center,Su-Th 12:00-20:00,museum,https://www.theafricacenter.org/,POINT (-73.9493338 40.7963422),75,East Harlem South
148,24,New York,12,10038.0,Fulton Street,Take a trip to the past as you travel by visiting this museum as you observing the rich history provided,POINT (-74.0036758 40.706628),40.706628,-74.0036758,South Street Seaport Museum,We-Su 11:00-17:00,museum,https://southstreetseaportmuseum.org/,POINT (-74.0036758 40.706628),87,Financial District North
149,26,New York,54,10004.0,Pearl Street,Take a trip to the past as you travel by visiting this museum as you observing the rich history provided,POINT (-74.0113536 40.7033867),40.7033867,-74.0113536,Fraunces Tavern Museum,We-Su 12:00-17:00,museum,https://www.frauncestavernmuseum.org/,POINT (-74.0113536 40.7033867),88,Financial District South
150,27,New York,1,10004.0,Bowling Green,Take a trip to the past as you travel by visiting this museum as you observing the rich history provided,POINT (-74.0137472 40.7040265),40.7040265,-74.0137472,National Museum of the American Indian,Mo-Su 10:00-17:00,museum,https://americanindian.si.edu/,POINT (-74.0137472 40.7040265),88,Financial District South
151,28,New York,119,10011.0,West 23rd Street,Take a trip to the past as you travel by visiting this museum as you observing the rich history provided,POINT (-73.9933334 40.7435904),40.7435904,-73.9933334,Poster House,"We-Mo 11:00-18:00, Tu off",museum,https://posterhouse.org/,POINT (-73.9933334 40.7435904),90,Flatiron
152,29,New York,150,10011.0,West 17th Street,Take a trip to the past as you travel by visiting this museum as you observing the rich history provided,POINT (-73.9977377 40.7400959),40.7400959,-73.9977377,Rubin Museum of Art,"Mo 11:00-17:00, Sa,Su 11:00-18:00; We 11:00-21:00, Th 11:00-17:00, Fr 11:00-22:00",museum,http://rubinmuseum.org/,POINT (-73.9977377 40.7400959),90,Flatiron
153,32,New York,29,10003.0,East 4th Street,Take a trip to the past as you travel by visiting this museum as you observing the rich history provided,POINT (-73.9923438 40.7276576),40.7276576,-73.9923438,Merchant's House Museum,Sep-May Th-Su 13:00-17:00; Jun-Aug We-Su 13:00-17:00; PH off,museum,https://merchantshouse.org/,POINT (-73.9923438 40.7276576),113,Greenwich Village North
155,37,New York,898,10032.0,St Nicholas Avenue,,POINT (-73.94120073207611 40.83060499427437),40.83060499,-73.94120073,Sugar Hill Children's Museum of Art & Storytelling,"Th 17:30-20:00, Sa-Sun 10:00-15:00",museum,http://www.sugarhillmuseum.org/,POINT (-73.94120073207611 40.83060499427437),116,Hamilton Heights
205,8,New York,466,10031.0,W 152nd Street,,POINT (-73.94366653022809 40.82939533227008),40.82939533,-73.94366653,"Dance Theatre of Harlem
","Th-Fr 09:30-19:00, Su 9:30-5:30, Mo 9:30-19:00",theatre,https://www.dancetheatreofharlem.org/,POINT (-73.94366653022809 40.82939533227008),116,Hamilton Heights
158,42,New York,4881,10034.0,Broadway,Museum in the city's only remaining Dutch colonial farmhouse (built circa 1764) and its garden.,POINT (-73.9228859 40.8673822),40.8673822,-73.9228859,Dyckman Farmhouse Museum,Th-Sa 11:00-16:00; Su 11:00-15:00,museum,https://dyckmanfarmhouse.org/,POINT (-73.9228859 40.8673822),127,Inwood
160,47,New York,290,10023.0,Columbus Avenue,Take a trip to the past as you travel by visiting this museum as you observing the rich history provided,POINT (-73.9781357 40.7786086),40.7786086,-73.9781357,NYC Barber Shop Museum,Tu-Fr 10:00-19:00; Sa 10:00-18:00; Su 11:00-17:00,museum,https://www.nycbarbershopmuseum.com/,POINT (-73.9781357 40.7786086),142,Lincoln Square East
166,67,New York,99,10014.0,Gansevoort Street,Take a trip to the past as you travel by visiting this museum as you observing the rich history provided,POINT (-74.0089385 40.739633),40.739633,-74.0089385,Whitney Museum of American Art,"We-Th, Sa-Mo 10:30-18:00; Fr 10:30-22:00",museum,https://www.whitney.org/,POINT (-74.0089385 40.739633),158,Meatpacking/West Village West
168,70,New York,2,10019.0,Columbus Circle,Take a trip to the past as you travel by visiting this museum as you observing the rich history provided,POINT (-73.9820053 40.7673824),40.7673824,-73.9820053,Museum of Arts and Design,"Tu, We, Fr-Su 10:00-18:00; Th 10:00-21:00",museum,https://www.madmuseum.org/,POINT (-73.9820053 40.7673824),163,Midtown North
169,74,New York,225,10016.0,Madison Avenue,Take a trip to the past as you travel by visiting this museum as you observing the rich history provided,POINT (-73.9814793 40.7491907),40.7491907,-73.9814793,The Morgan Library & Museum,Tu-Su 10:00-17:30,museum,https://www.themorgan.org/,POINT (-73.9814793 40.7491907),170,Murray Hill
170,75,New York,227,10010.0,W 27th Street,,POINT (-73.99426907354918 40.74668799155961),40.74668799,-73.99426907,The Museum at FIT,We-Fr 12:00-20:00; Sa-Su 10:00-17:00,museum,http://www.fitnyc.edu/museum,POINT (-73.99426907354918 40.74668799155961),186,Penn Station/Madison Sq West
175,95,New York,1071,10128.0,5th Avenue,Hint: Saturdays 18:00-20:00 Pay-What-You-Wish Admission,POINT (-73.9588842 40.7829919),40.7829919,-73.9588842,Guggenheim Museum,"Mo, We-Fr, Su 11:00-18:00; Th off; Sa 11:00-20:00",museum,https://www.guggenheim.org/new-york,POINT (-73.9588842 40.7829919),236,Upper East Side North
176,96,New York,1109,10128.0,5th Avenue,Take a trip to the past as you travel by visiting this museum as you observing the rich history provided,POINT (-73.957186 40.7854051),40.7854051,-73.957186,The Jewish Museum,"Mo, Tu, Sa, Su 11:00-17:45; Th 11:00-20:00; Fr 11:00-16:00",museum,https://thejewishmuseum.org,POINT (-73.957186 40.7854051),236,Upper East Side North
179,101,New York,212,10024.0,West 83rd Street,Take a trip to the past as you travel by visiting this museum as you observing the rich history provided,POINT (-73.9773343 40.7858798),40.7858798,-73.9773343,Children's Museum of Manhattan,Su-Fr 10:00-17:00; Sa 10:00-19:00,museum,https://www.cmom.org/,POINT (-73.9773343 40.7858798),239,Upper West Side South
180,102,New York,180,10024.0,Central Park West,"The American Museum of Natural History is a natural history museum on the Upper West Side of Manhattan in New York City. In Theodore Roosevelt Park, across the street from Central Park, the museum complex comprises 26 interconnected buildings housing 45 p",POINT (-73.974211 40.7810986),40.7810986,-73.974211,American Museum of Natural History,Mo-Su 10:00-17:30,museum,https://www.amnh.org/,POINT (-73.974211 40.7810986),239,Upper West Side South
181,103,New York,200,10024.0,Central Park West,Take a trip to the past as you travel by visiting this museum as you observing the rich history provided,POINT (-73.9733215 40.7813974),40.7813974,-73.9733215,Hayden Planetarium,Mo-Su 10:00-17:30,museum,https://haydenplanetarium.org/,POINT (-73.9733215 40.7813974),239,Upper West Side South
182,104,New York,99,10040.0,Margaret Corbin Drive,Take a trip to the past as you travel by visiting this museum as you observing the rich history provided,POINT (-73.9319228 40.8648684),40.8648684,-73.9319228,The Met Cloisters,Th-Tu 10:00-16:30,museum,https://www.metmuseum.org/visit/plan-your-visit/met-cloisters,POINT (-73.9319228 40.8648684),243,Washington Heights North
183,105,New York,613,10032.0,W 155th Street,,POINT (-73.94620040119585 40.83397364695048),40.83397365,-73.9462004,"Hispanic Society Museum & Library
",Th-Su 12:00-17:00,museum,http://www.hispanicsociety.org/,POINT (-73.94620040119585 40.83397364695048),244,Washington Heights South
185,205,New York,180,10007.0,Greenwich Street,Take a trip to the past as you travel by visiting this museum as you observing the rich history provided,POINT (-74.0127418 40.711456),40.711456,-74.0127418,9/11 Memorial & Museum,Mo-Th 09:00-20:00; Fr-Sa 09:00-21:00; Su 09:00-20:00,museum,https://www.911memorial.org/,POINT (-74.0127418 40.711456),261,World Trade Center
186,206,New York,92,10006.0,Greenwich Street,Take a trip to the past as you travel by visiting this museum as you observing the rich history provided,POINT (-74.0137633 40.7079432),40.7079432,-74.0137633,9/11 Tribute Museum,Mo-Sa 10:00-18:00; Su 10:00-17:00,museum,https://911tributemuseum.org/,POINT (-74.0137633 40.7079432),261,World Trade Center
202,25,New York,185,10007.0,Greenwich Street,,POINT(-74.01120542039087 40.71220927158285),40.71220927,-74.01120542,Westfield World Trade Center,Mo-Sa 10:00-20:00; Su 10:00-19:00,shopping,https://www.westfield.com/westfieldworldtradecenter,POINT (-74.01120542039087 40.71220927158285),261,World Trade Center
188,3,New York,,10004.0,Battery Park,,POINT(-74.01537862233573 40.703583270284206),40.70358327,-74.01537862,The Battery ,Mo-Su 6:00-00:00,park,https://www.thebattery.org/,POINT (-74.01537862233573 40.703583270284206),12,Battery Park
190,12,New York,,10013.0,Mulberry Street & Baxter Street,,POINT (-74.00005303208148 40.71570487920854),40.71570488,-74.00005303,"Columbus Park
",Mo-Su 6:00-10:00,park,https://www.nycgovparks.org/parks/columbus-park-m015,POINT (-74.00005303208148 40.71570487920854),45,Chinatown
191,38,New York,,10040.0,"W 190th St &, Amsterdam Ave",,POINT (-73.92566291430934 40.85407238455946),40.85407238,-73.92566291,Highbridge Park,Mo-Su 6:00-23:00,park,https://www.nycgovparks.org/parks/highbridge-park,POINT (-73.92566291430934 40.85407238455946),120,Highbridge Park
192,43,New York,,10034.0,"Payson Avenue. &, Seaman Avenue",,POINT (-73.92478673207417 40.87232078946028),40.87232079,-73.92478673,Inwood Hill Park,Mo-Su 06:00- 01:00,park,https://www.nycgovparks.org/parks/inwood-hill-park,POINT (-73.92478673207417 40.87232078946028),128,Inwood Hill Park
193,45,New York,,10022.0,"E. 60th Street &, FDR Drive",,POINT (-73.95743298975025 40.75982795658405),40.75982796,-73.95743299,Andrew Haswell Green Park,Mo 06:00-01:00; Tu-Sa 06:00-23:00; Su 06:00-00:00,park,https://www.nycgovparks.org/parks/andrew-haswell-green-park,POINT (-73.95743298975025 40.75982795658405),140,Lenox Hill East
196,77,New York,,10035.0,"East River and, Hell Gate Cir",,POINT (-73.92927484483064 40.784524418324246),40.78452442,-73.92927484,Wards Island Park,Mo-Su 06:00-01:00,park,http://www.nycgovparks.org/parks/wards-island-park,POINT (-73.92927484483064 40.784524418324246),194,Randalls Island
197,78,New York,,10044.0,Roosevelt Island,,POINT(-73.95809228790247 40.752623513431146),40.75262351,-73.95809229,Southpoint Park,Mo-Su 09:00-22:00,park,http://rioc.ny.gov/,POINT (-73.95809228790247 40.752623513431146),202,Roosevelt Island
199,82,New York,500,10022.0,E 57th Street,,POINT (-73.960256728935 40.756828589777264),40.75682859,-73.96025673,Sutton Park,Mo-Su 6:00-21:00,park,https://www.nycgovparks.org/parks/sutton-place-park,POINT (-73.960256728935 40.756828589777264),229,Sutton Place/Turtle Bay North
200,207,New York,,10026.0,"East 86th Street &, East End Avenue",,POINT (-73.9436897424881 40.775346777775155),40.77534678,-73.94368974,Carl Schurz Park,Mo-Su 06:00-00:00,park,http://www.carlschurzparknyc.org/,POINT (-73.9436897424881 40.775346777775155),262,Yorkville East
203,66,New York,50,10463.0,W 225th Street,,POINT (-73.90879641638867 40.873277843259125),40.87327784,-73.90879642,The Shops at Marble Hill,Mo-Su 07:00-00:00,shopping,http://www.theshopsatmarblehill.com/,POINT (-73.90879641638867 40.873277843259125),153,Marble Hill
204,7,New York,253,10027.0,W 125th Street,,POINT (-73.95003454557084 40.81007481450336),40.81007481,-73.95003455,Apollo Theater,"Depends on show time, see website",theatre,https://www.apollotheater.org/,POINT (-73.95003454557084 40.81007481450336),41,Central Harlem
